IRIDIUM 39 [-]          
1 25042U 97069D   24039.56066517  .00001183  00000+0  31483-3 0  9992
2 25042  86.3871  63.0162 0019374 150.8475 209.3814 14.47672034377620
IRIDIUM 38 [-]          
1 25043U 97069E   24039.62881908  .00000709  00000+0  23243-3 0  9997
2 25043  86.3914  81.1090 0001000  19.6806 340.4429 14.37082769374903
IRIDIUM 42 [-]          
1 25077U 97077A   24039.66809669  .00000657  00000+0  22241-3 0  9990
2 25077  86.3923  86.6631 0001597  84.1955 275.9423 14.35379252370236
IRIDIUM 44 [-]          
1 25078U 97077B   24039.62517985  .00000803  00000+0  25313-3 0  9990
2 25078  86.3908  69.9199 0001999 142.9819 217.1518 14.39194813372542
IRIDIUM 45 [-]          
1 25104U 97082A   24040.16573911  .00016884  00000+0  10272-2 0  9991
2 25104  86.3740 282.6454 0170464 348.4301  11.3030 14.98888772377757
IRIDIUM 24 [-]          
1 25105U 97082B   24039.73388737  .00000790  00000+0  23982-3 0  9995
2 25105  86.3901 289.7004 0009414 271.8245  88.1877 14.40973513371983
IRIDIUM 51 [-]          
1 25262U 98018A   24039.78694149  .00018795  00000+0  97432-3 0  9996
2 25262  86.3962 293.0204 0152729 299.0771  59.5240 15.06401263371907
